STARLINK-2022           
1 47643U 21012Z   24226.38243024  .00013049  00000+0  89400-3 0  9992
2 47643  53.0526 105.2939 0001155 100.5807 259.5312 15.06370678193855
